[{"OBJECT_NAME":"GHGSAT-C5","OBJECT_ID":"2022-057N","EPOCH":"2026-03-09T21:50:12.501024","MEAN_MOTION":15.32921902,"ECCENTRICITY":0.00082696,"INCLINATION":97.6522,"RA_OF_ASC_NODE":212.4963,"ARG_OF_PERICENTER":109.8004,"MEAN_ANOMALY":250.413,"EPHEMERIS_TYPE":0,"CLASSIFICATION_TYPE":"U","NORAD_CAT_ID":52744,"ELEMENT_SET_NO":999,"REV_AT_EPOCH":21032,"BSTAR":0.00029214604,"MEAN_MOTION_DOT":9.218e-5,"MEAN_MOTION_DDOT":0},{"OBJECT_NAME":"STARLINK-35277","OBJECT_ID":"2025-221K","EPOCH":"2026-03-09T11:50:14.254656","MEAN_MOTION":15.30160899,"ECCENTRICITY":0.00013524,"INCLINATION":53.1593,"RA_OF_ASC_NODE":89.2337,"ARG_OF_PERICENTER":79.5609,"MEAN_ANOMALY":280.5544,"EPHEMERIS_TYPE":0,"CLASSIFICATION_TYPE":"U","NORAD_CAT_ID":65832,"ELEMENT_SET_NO":999,"REV_AT_EPOCH":2605,"BSTAR":0.00086520701,"MEAN_MOTION_DOT":0.00025322,"MEAN_MOTION_DDOT":0}]
